PostalCode,City,Municipality,Province
1000,Brussel,Brussel,Région
1020,Laken,Brussel,Région
1030,Schaarbeek,Schaarbeek,Région
1040,Etterbeek,Etterbeek,Région
1050,Elsene,Elsene,Région
1081,Koekelberg,Koekelberg,Région
1083,Ganshoren,Ganshoren,Région
1090,Jette,Jette,Région
1130,Haren,Brussel,Région
1140,Evere,Evere,Région
1160,Oudergem,Oudergem,Région
1180,Ukkel,Ukkel,Région
1190,Vorst,Vorst,Région
1300,Wavre,Wavre,Brabant
1300,Limal,Wavre,Brabant
1301,Bierges,Wavre,Brabant
1310,La,Hulpe,La
1315,Incourt,Incourt,Brabant
1315,Opprebais,Incourt,Brabant
1315,Piétrebais,Incourt,Brabant
1315,Glimes,Incourt,Brabant
1320,Beauvechain,Beauvechain,Brabant
1320,Nodebais,Beauvechain,Brabant
1330,Rixensart,Rixensart,Brabant
1332,Genval,Rixensart,Brabant
1351,Rosières,Rixensart,Brabant
1357,Hélécine,Hélécine,Brabant
1357,Neerheylissem,Hélécine,Brabant
1357,Opheylissem,Hélécine,Brabant
1357,Linsmeau,Hélécine,Brabant
1360,Perwez,Perwez,Brabant
1360,Orbais,Perwez,Brabant
1367,Ramillies,Ramillies,Brabant
1367,Huppaye,Ramillies,Brabant
1367,Bomal,Ramillies,Brabant
1367,Gérompont,Ramillies,Brabant
1370,Jodoigne,Jodoigne,Brabant
1370,Mélin,Jodoigne,Brabant
1370,Piétrain,Jodoigne,Brabant
1370,Lathuy,Jodoigne,Brabant
1370,Dongelberg,Jodoigne,Brabant
1370,Jauchelette,Jodoigne,Brabant
1380,Lasne,Lasne,Brabant
1380,Ohain,Lasne,Brabant
1380,Plancenoit,Lasne,Brabant
1380,Maransart,Lasne,Brabant
1400,Nivelles,Nivelles,Brabant
1400,Monstreux,Nivelles,Brabant
1401,Baulers,Nivelles,Brabant
1402,Thines,Nivelles,Brabant
1404,Bornival,Nivelles,Brabant
1410,Waterloo,Waterloo,Brabant
1430,Rebecq,Rebecq,Brabant
1430,Quenast,Rebecq,Brabant
1430,Bierghes,Rebecq,Brabant
1450,Chastre,Chastre,Brabant
1450,Gentinnes,Chastre,Brabant
1457,Walhain,Walhain,Brabant
1460,Ittre,Ittre,Brabant
1470,Genappe,Genappe,Brabant
1470,Bousval,Genappe,Brabant
1471,Loupoigne,Genappe,Brabant
1473,Glabais,Genappe,Brabant
1474,Ways,Genappe,Brabant
1480,Tubize,Tubize,Brabant
1480,Saintes,Tubize,Brabant
1480,Clabecq,Tubize,Brabant
1480,Oisquercq,Tubize,Brabant
1500,Halle,Halle,Brabant
1501,Buizingen,Halle,Brabant
1502,Lembeek,Halle,Brabant
1540,Herne,Herne,Brabant
1540,Herfelingen,Herne,Brabant
1547,Bever,Bever,Brabant
1560,Hoeilaart,Hoeilaart,Brabant
1570,Galmaarden,Galmaarden,Brabant
1570,Tollembeek,Galmaarden,Brabant
1570,Vollezele,Galmaarden,Brabant
1620,Drogenbos,Drogenbos,Brabant
1630,Linkebeek,Linkebeek,Brabant
1650,Beersel,Beersel,Brabant
1651,Lot,Beersel,Brabant
1652,Alsemberg,Beersel,Brabant
1653,Dworp,Beersel,Brabant
1654,Huizingen,Beersel,Brabant
1670,Pepingen,Pepingen,Brabant
1670,Heikruis,Pepingen,Brabant
1670,Bogaarden,Pepingen,Brabant
1671,Elingen,Pepingen,Brabant
1673,Beert,Pepingen,Brabant
1674,Bellingen,Pepingen,Brabant
1700,Dilbeek,Dilbeek,Brabant
1701,Itterbeek,Dilbeek,Brabant
1703,Schepdaal,Dilbeek,Brabant
1730,Asse,Asse,Brabant
1730,Mollem,Asse,Brabant
1730,Kobbegem,Asse,Brabant
1730,Bekkerzeel,Asse,Brabant
1731,Zellik,Asse,Brabant
1731,Relegem,Asse,Brabant
1740,Ternat,Ternat,Brabant
1741,Wambeek,Ternat,Brabant
1745,Opwijk,Opwijk,Brabant
1745,Mazenzele,Opwijk,Brabant
1750,Lennik,Lennik,Brabant
1750,Gaasbeek,Lennik,Brabant
1755,Gooik,Gooik,Brabant
1755,Kester,Gooik,Brabant
1755,Leerbeek,Gooik,Brabant
1755,Oetingen,Gooik,Brabant
1760,Roosdaal,Roosdaal,Brabant
1760,Pamel,Roosdaal,Brabant
1760,Strijtem,Roosdaal,Brabant
1761,Borchtlombeek,Roosdaal,Brabant
1770,Liedekerke,Liedekerke,Brabant
1780,Wemmel,Wemmel,Brabant
1785,Merchtem,Merchtem,Brabant
1785,Brussegem,Merchtem,Brabant
1785,Hamme,Merchtem,Brabant
1790,Affligem,Affligem,Brabant
1790,Essene,Affligem,Brabant
1790,Hekelgem,Affligem,Brabant
1790,Teralfene,Affligem,Brabant
1800,Vilvoorde,Vilvoorde,Brabant
1800,Peutie,Vilvoorde,Brabant
1820,Steenokkerzeel,Steenokkerzeel,Brabant
1820,Perk,Steenokkerzeel,Brabant
1820,Melsbroek,Steenokkerzeel,Brabant
1830,Machelen,Machelen,Brabant
1831,Diegem,Machelen,Brabant
1840,Londerzeel,Londerzeel,Brabant
1840,Malderen,Londerzeel,Brabant
1840,Steenhuffel,Londerzeel,Brabant
1850,Grimbergen,Grimbergen,Brabant
1851,Humbeek,Grimbergen,Brabant
1852,Beigem,Grimbergen,Brabant
1860,Meise,Meise,Brabant
1861,Wolvertem,Meise,Brabant
1910,Kampenhout,Kampenhout,Brabant
1910,Nederokkerzeel,Kampenhout,Brabant
1910,Berg,Kampenhout,Brabant
1910,Buken,Kampenhout,Brabant
1930,Zaventem,Zaventem,Brabant
1930,Nossegem,Zaventem,Brabant
1933,Sterrebeek,Zaventem,Brabant
1950,Kraainem,Kraainem,Brabant
1980,Zemst,Zemst,Brabant
1980,Eppegem,Zemst,Brabant
1981,Hofstade,Zemst,Brabant
1982,Elewijt,Zemst,Brabant
1982,Weerde,Zemst,Brabant
2000,Anvers,Anvers,Anvers
2040,Berendrecht,Anvers,Anvers
2040,Zandvliet,Anvers,Anvers
2040,Lillo,Anvers,Anvers
2070,Zwijndrecht,Zwijndrecht,Anvers
2070,Burcht,Zwijndrecht,Anvers
2100,Deurne,Anvers,Anvers
2110,Wijnegem,Wijnegem,Anvers
2140,Borgerhout,Anvers,Anvers
2150,Borsbeek,Borsbeek,Anvers
2160,Wommelgem,Wommelgem,Anvers
2170,Merksem,Anvers,Anvers
2180,Ekeren,Anvers,Anvers
2200,Herentals,Herentals,Anvers
2200,Noorderwijk,Herentals,Anvers
2200,Morkhoven,Herentals,Anvers
2230,Herselt,Herselt,Anvers
2230,Ramsel,Herselt,Anvers
2235,Hulshout,Hulshout,Anvers
2235,Houtvenne,Hulshout,Anvers
2235,Westmeerbeek,Hulshout,Anvers
2240,Zandhoven,Zandhoven,Anvers
2240,Massenhoven,Zandhoven,Anvers
2240,Viersel,Zandhoven,Anvers
2242,Pulderbos,Zandhoven,Anvers
2243,Pulle,Zandhoven,Anvers
2250,Olen,Olen,Anvers
2260,Westerlo,Westerlo,Anvers
2260,Tongerlo,Westerlo,Anvers
2260,Oevel,Westerlo,Anvers
2270,Herenthout,Herenthout,Anvers
2275,Lille,Lille,Anvers
2275,Gierle,Lille,Anvers
2275,Wechelderzande,Lille,Anvers
2275,Poederlee,Lille,Anvers
2280,Grobbendonk,Grobbendonk,Anvers
2288,Bouwel,Grobbendonk,Anvers
2290,Vorselaar,Vorselaar,Anvers
2300,Turnhout,Turnhout,Anvers
2310,Rijkevorsel,Rijkevorsel,Anvers
2320,Hoogstraten,Hoogstraten,Anvers
2321,Meer,Hoogstraten,Anvers
2322,Minderhout,Hoogstraten,Anvers
2323,Wortel,Hoogstraten,Anvers
2328,Meerle,Hoogstraten,Anvers
2330,Merksplas,Merksplas,Anvers
2340,Beerse,Beerse,Anvers
2340,Vlimmeren,Beerse,Anvers
2350,Vosselaar,Vosselaar,Anvers
2370,Arendonk,Arendonk,Anvers
2380,Ravels,Ravels,Anvers
2381,Weelde,Ravels,Anvers
2382,Poppel,Ravels,Anvers
2390,Malle,Malle,Anvers
2390,Oostmalle,Malle,Anvers
2390,Westmalle,Malle,Anvers
2400,Mol,Mol,Anvers
2430,Laakdal,Laakdal,Anvers
2430,Vorst,Laakdal,Anvers
2430,Eindhout,Laakdal,Anvers
2431,Veerle,Laakdal,Anvers
2431,Varendonk,Laakdal,Anvers
2440,Geel,Geel,Anvers
2450,Meerhout,Meerhout,Anvers
2460,Kasterlee,Kasterlee,Anvers
2460,Lichtaart,Kasterlee,Anvers
2460,Tielen,Kasterlee,Anvers
2470,Retie,Retie,Anvers
2480,Dessel,Dessel,Anvers
2490,Balen,Balen,Anvers
2491,Olmen,Balen,Anvers
2500,Lier,Lier,Anvers
2500,Koningshooikt,Lier,Anvers
2520,Ranst,Ranst,Anvers
2520,Oelegem,Ranst,Anvers
2520,Broechem,Ranst,Anvers
2520,Emblem,Ranst,Anvers
2530,Boechout,Boechout,Anvers
2531,Vremde,Boechout,Anvers
2540,Hove,Hove,Anvers
2547,Lint,Lint,Anvers
2550,Kontich,Kontich,Anvers
2550,Waarloos,Kontich,Anvers
2560,Nijlen,Nijlen,Anvers
2560,Kessel,Nijlen,Anvers
2560,Bevel,Nijlen,Anvers
2570,Duffel,Duffel,Anvers
2580,Putte,Putte,Anvers
2580,Beerzel,Putte,Anvers
2590,Berlaar,Berlaar,Anvers
2590,Gestel,Berlaar,Anvers
2600,Berchem,Anvers,Anvers
2610,Wilrijk,Anvers,Anvers
2620,Hemiksem,Hemiksem,Anvers
2627,Schelle,Schelle,Anvers
2630,Aartselaar,Aartselaar,Anvers
2640,Mortsel,Mortsel,Anvers
2650,Edegem,Edegem,Anvers
2660,Hoboken,Anvers,Anvers
2800,Mechelen,Mechelen,Anvers
2800,Walem,Mechelen,Anvers
2801,Heffen,Mechelen,Anvers
2811,Hombeek,Mechelen,Anvers
2811,Leest,Mechelen,Anvers
2812,Muizen,Mechelen,Anvers
2820,Bonheiden,Bonheiden,Anvers
2820,Rijmenam,Bonheiden,Anvers
2830,Willebroek,Willebroek,Anvers
2830,Blaasveld,Willebroek,Anvers
2830,Tisselt,Willebroek,Anvers
2830,Heindonk,Willebroek,Anvers
2840,Rumst,Rumst,Anvers
2840,Reet,Rumst,Anvers
2840,Terhagen,Rumst,Anvers
2845,Niel,Niel,Anvers
2850,Boom,Boom,Anvers
2880,Bornem,Bornem,Anvers
2880,Hingene,Bornem,Anvers
2880,Mariekerke,Bornem,Anvers
2880,Weert,Bornem,Anvers
2900,Schoten,Schoten,Anvers
2910,Essen,Essen,Anvers
2920,Kalmthout,Kalmthout,Anvers
2930,Brasschaat,Brasschaat,Anvers
2940,Stabroek,Stabroek,Anvers
2940,Hoevenen,Stabroek,Anvers
2950,Kapellen,Kapellen,Anvers
2960,Brecht,Brecht,Anvers
2970,Schilde,Schilde,Anvers
2980,Zoersel,Zoersel,Anvers
2980,Halle,Zoersel,Anvers
2990,Wuustwezel,Wuustwezel,Anvers
2990,Loenhout,Wuustwezel,Anvers
3000,Leuven,Leuven,Brabant
3001,Heverlee,Leuven,Brabant
3012,Wilsele,Leuven,Brabant
3018,Wijgmaal,Leuven,Brabant
3020,Herent,Herent,Brabant
3020,Winksele,Herent,Brabant
3040,Huldenberg,Huldenberg,Brabant
3040,Neerijse,Huldenberg,Brabant
3040,Ottenburg,Huldenberg,Brabant
3040,Loonbeek,Huldenberg,Brabant
3060,Bertem,Bertem,Brabant
3061,Leefdaal,Bertem,Brabant
3070,Kortenberg,Kortenberg,Brabant
3078,Everberg,Kortenberg,Brabant
3078,Meerbeek,Kortenberg,Brabant
3080,Tervuren,Tervuren,Brabant
3080,Vossem,Tervuren,Brabant
3080,Duisburg,Tervuren,Brabant
3090,Overijse,Overijse,Brabant
3110,Rotselaar,Rotselaar,Brabant
3111,Wezemaal,Rotselaar,Brabant
3118,Werchter,Rotselaar,Brabant
3120,Tremelo,Tremelo,Brabant
3128,Baal,Tremelo,Brabant
3130,Begijnendijk,Begijnendijk,Brabant
3130,Betekom,Begijnendijk,Brabant
3140,Keerbergen,Keerbergen,Brabant
3150,Haacht,Haacht,Brabant
3150,Tildonk,Haacht,Brabant
3150,Wespelaar,Haacht,Brabant
3190,Boortmeerbeek,Boortmeerbeek,Brabant
3191,Hever,Boortmeerbeek,Brabant
3200,Aarschot,Aarschot,Brabant
3200,Gelrode,Aarschot,Brabant
3201,Langdorp,Aarschot,Brabant
3202,Rillaar,Aarschot,Brabant
3210,Lubbeek,Lubbeek,Brabant
3210,Linden,Lubbeek,Brabant
3211,Binkom,Lubbeek,Brabant
3212,Pellenberg,Lubbeek,Brabant
3220,Holsbeek,Holsbeek,Brabant
3221,Nieuwrode,Holsbeek,Brabant
3290,Diest,Diest,Brabant
3290,Schaffen,Diest,Brabant
3290,Deurne,Diest,Brabant
3290,Webbekom,Diest,Brabant
3293,Kaggevinne,Diest,Brabant
3294,Molenstede,Diest,Brabant
3300,Tienen,Tienen,Brabant
3300,Hakendover,Tienen,Brabant
3300,Bost,Tienen,Brabant
3300,Goetsenhoven,Tienen,Brabant
3300,Oorbeek,Tienen,Brabant
3300,Vissenaken,Tienen,Brabant
3300,Kumtich,Tienen,Brabant
3300,Oplinter,Tienen,Brabant
3320,Hoegaarden,Hoegaarden,Brabant
3320,Meldert,Hoegaarden,Brabant
3321,Outgaarden,Hoegaarden,Brabant
3350,Linter,Linter,Brabant
3350,Drieslinter,Linter,Brabant
3350,Neerlinter,Linter,Brabant
3350,Wommersom,Linter,Brabant
3350,Overhespen,Linter,Brabant
3350,Melkwezer,Linter,Brabant
3350,Neerhespen,Linter,Brabant
3360,Bierbeek,Bierbeek,Brabant
3360,Lovenjoel,Bierbeek,Brabant
3360,Opvelp,Bierbeek,Brabant
3370,Boutersem,Boutersem,Brabant
3370,Roosbeek,Boutersem,Brabant
3370,Kerkom,Boutersem,Brabant
3370,Vertrijk,Boutersem,Brabant
3370,Neervelp,Boutersem,Brabant
3370,Willebringen,Boutersem,Brabant
3380,Glabbeek,Glabbeek,Brabant
3380,Bunsbeek,Glabbeek,Brabant
3381,Kapellen,Glabbeek,Brabant
3384,Attenrode,Glabbeek,Brabant
3400,Landen,Landen,Brabant
3400,Laar,Landen,Brabant
3400,Ezemaal,Landen,Brabant
3400,Eliksem,Landen,Brabant
3400,Wange,Landen,Brabant
3400,Neerwinden,Landen,Brabant
3400,Overwinden,Landen,Brabant
3400,Rumsdorp,Landen,Brabant
3401,Waasmont,Landen,Brabant
3401,Walsbets,Landen,Brabant
3401,Walshoutem,Landen,Brabant
3401,Wezeren,Landen,Brabant
3404,Attenhoven,Landen,Brabant
3404,Neerlanden,Landen,Brabant
3440,Zoutleeuw,Zoutleeuw,Brabant
3440,Budingen,Zoutleeuw,Brabant
3440,Dormaal,Zoutleeuw,Brabant
3450,Geetbets,Geetbets,Brabant
3450,Grazen,Geetbets,Brabant
3454,Rummen,Geetbets,Brabant
3460,Bekkevoort,Bekkevoort,Brabant
3460,Assent,Bekkevoort,Brabant
3470,Kortenaken,Kortenaken,Brabant
3470,Ransberg,Kortenaken,Brabant
3471,Hoeleden,Kortenaken,Brabant
3473,Waanrode,Kortenaken,Brabant
3500,Hasselt,Hasselt,Limbourg
3501,Wimmertingen,Hasselt,Limbourg
3510,Kermt,Hasselt,Limbourg
3510,Spalbeek,Hasselt,Limbourg
3511,Kuringen,Hasselt,Limbourg
3511,Stokrooie,Hasselt,Limbourg
3512,Stevoort,Hasselt,Limbourg
3520,Zonhoven,Zonhoven,Limbourg
3545,Halen,Halen,Limbourg
3545,Zelem,Halen,Limbourg
3545,Loksbergen,Halen,Limbourg
3560,Lummen,Lummen,Limbourg
3560,Linkhout,Lummen,Limbourg
3560,Meldert,Lummen,Limbourg
3570,Alken,Alken,Limbourg
3580,Beringen,Beringen,Limbourg
3581,Beverlo,Beringen,Limbourg
3582,Koersel,Beringen,Limbourg
3582,Stal,Beringen,Limbourg
3590,Diepenbeek,Diepenbeek,Limbourg
3593,Paal,Beringen,Limbourg
3600,Genk,Genk,Limbourg
3620,Lanaken,Lanaken,Limbourg
3620,Gellik,Lanaken,Limbourg
3620,Veldwezelt,Lanaken,Limbourg
3620,Neerharen,Lanaken,Limbourg
3621,Rekem,Lanaken,Limbourg
3630,Maasmechelen,Maasmechelen,Limbourg
3630,Eisden,Maasmechelen,Limbourg
3630,Opgrimbie,Maasmechelen,Limbourg
3630,Vucht,Maasmechelen,Limbourg
3630,Leut,Maasmechelen,Limbourg
3630,Meeswijk,Maasmechelen,Limbourg
3631,Boorsem,Maasmechelen,Limbourg
3631,Uikhoven,Maasmechelen,Limbourg
3640,Kinrooi,Kinrooi,Limbourg
3640,Molenbeersel,Kinrooi,Limbourg
3640,Ophoven,Kinrooi,Limbourg
3640,Kessenich,Kinrooi,Limbourg
3660,Opglabbeek,Oudsbergen,Limbourg
3665,As,As,Limbourg
3670,Oudsbergen,Oudsbergen,Limbourg
3670,Meeuwen,Oudsbergen,Limbourg
3670,Gruitrode,Oudsbergen,Limbourg
3670,Wijshagen,Oudsbergen,Limbourg
3670,Ellikom,Oudsbergen,Limbourg
3670,Neerglabbeek,Oudsbergen,Limbourg
3680,Maaseik,Maaseik,Limbourg
3680,Neeroeteren,Maaseik,Limbourg
3680,Opoeteren,Maaseik,Limbourg
3690,Zutendaal,Zutendaal,Limbourg
3700,Tongeren,Tongeren,Limbourg
3700,Koninksem,Tongeren,Limbourg
3700,Vreren,Tongeren,Limbourg
3700,Berg,Tongeren,Limbourg
3700,Lauw,Tongeren,Limbourg
3700,Mal,Tongeren,Limbourg
3700,Riksingen,Tongeren,Limbourg
3700,Henis,Tongeren,Limbourg
3700,Nerem,Tongeren,Limbourg
3700,Piringen,Tongeren,Limbourg
3700,Rutten,Tongeren,Limbourg
3700,Sluizen,Tongeren,Limbourg
3700,Overrepen,Tongeren,Limbourg
3700,s,Herenelderen,Tongeren
3700,Widooie,Tongeren,Limbourg
3700,Neerrepen,Tongeren,Limbourg
3717,Herstappe,Herstappe,Limbourg
3720,Kortessem,Kortessem,Limbourg
3721,Vliermaalroot,Kortessem,Limbourg
3722,Wintershoven,Kortessem,Limbourg
3723,Guigoven,Kortessem,Limbourg
3724,Vliermaal,Kortessem,Limbourg
3730,Hoeselt,Hoeselt,Limbourg
3730,Romershoven,Hoeselt,Limbourg
3730,Werm,Hoeselt,Limbourg
3732,Schalkhoven,Hoeselt,Limbourg
3740,Bilzen,Bilzen,Limbourg
3740,Beverst,Bilzen,Limbourg
3740,Munsterbilzen,Bilzen,Limbourg
3740,Eigenbilzen,Bilzen,Limbourg
3740,Mopertingen,Bilzen,Limbourg
3740,Rijkhoven,Bilzen,Limbourg
3740,Waltwilder,Bilzen,Limbourg
3740,Hees,Bilzen,Limbourg
3740,Rosmeer,Bilzen,Limbourg
3742,Martenslinde,Bilzen,Limbourg
3746,Hoelbeek,Bilzen,Limbourg
3770,Riemst,Riemst,Limbourg
3770,Vlijtingen,Riemst,Limbourg
3770,Herderen,Riemst,Limbourg
3770,Millen,Riemst,Limbourg
3770,Vroenhoven,Riemst,Limbourg
3770,Kanne,Riemst,Limbourg
3770,Membruggen,Riemst,Limbourg
3770,Genoelselderen,Riemst,Limbourg
3790,Voeren,Voeren,Limbourg
3790,Moelingen,Voeren,Limbourg
3790,Teuven,Voeren,Limbourg
3790,Remersdaal,Voeren,Limbourg
3830,Wellen,Wellen,Limbourg
3830,Berlingen,Wellen,Limbourg
3831,Herten,Wellen,Limbourg
3832,Ulbeek,Wellen,Limbourg
3840,Borgloon,Borgloon,Limbourg
3840,Hoepertingen,Borgloon,Limbourg
3840,Bommershoven,Borgloon,Limbourg
3840,Jesseren,Borgloon,Limbourg
3840,Kerniel,Borgloon,Limbourg
3840,Rijkel,Borgloon,Limbourg
3840,Broekom,Borgloon,Limbourg
3840,Gotem,Borgloon,Limbourg
3840,Hendrieken,Borgloon,Limbourg
3840,Voort,Borgloon,Limbourg
3840,Kuttekoven,Borgloon,Limbourg
3850,Nieuwerkerken,Nieuwerkerken,Limbourg
3850,Kozen,Nieuwerkerken,Limbourg
3850,Wijer,Nieuwerkerken,Limbourg
3850,Binderveld,Nieuwerkerken,Limbourg
3870,Heers,Heers,Limbourg
3870,Vechmaal,Heers,Limbourg
3870,Horpmaal,Heers,Limbourg
3870,Veulen,Heers,Limbourg
3870,Gutschoven,Heers,Limbourg
3870,Heks,Heers,Limbourg
3870,Mettekoven,Heers,Limbourg
3870,Batsheers,Heers,Limbourg
3870,Opheers,Heers,Limbourg
3890,Gingelom,Gingelom,Limbourg
3890,Jeuk,Gingelom,Limbourg
3890,Montenaken,Gingelom,Limbourg
3890,Boekhout,Gingelom,Limbourg
3890,Kortijs,Gingelom,Limbourg
3890,Vorsen,Gingelom,Limbourg
3891,Borlo,Gingelom,Limbourg
3891,Buvingen,Gingelom,Limbourg
3891,Muizen,Gingelom,Limbourg
3900,Pelt,Pelt,Limbourg
3900,Overpelt,Pelt,Limbourg
3910,Neerpelt,Pelt,Limbourg
3920,Lommel,Lommel,Limbourg
3945,Ham,Ham,Limbourg
3945,Oostham,Ham,Limbourg
3950,Bocholt,Bocholt,Limbourg
3950,Kaulille,Bocholt,Limbourg
3950,Reppel,Bocholt,Limbourg
3960,Bree,Bree,Limbourg
3960,Gerdingen,Bree,Limbourg
3960,Opitter,Bree,Limbourg
3960,Tongerlo,Bree,Limbourg
3960,Beek,Bree,Limbourg
3970,Leopoldsburg,Leopoldsburg,Limbourg
3971,Heppen,Leopoldsburg,Limbourg
3980,Tessenderlo,Tessenderlo,Limbourg
3990,Peer,Peer,Limbourg
3990,Wijchmaal,Peer,Limbourg
4000,Liège,Liège,Liège
4000,Rocourt,Liège,Liège
4000,Glain,Liège,Liège
4020,Bressoux,Liège,Liège
4020,Wandre,Liège,Liège
4030,Grivegnée,Liège,Liège
4031,Angleur,Liège,Liège
4032,Chênée,Liège,Liège
4040,Herstal,Herstal,Liège
4041,Vottem,Herstal,Liège
4041,Milmort,Herstal,Liège
4042,Liers,Herstal,Liège
4050,Chaudfontaine,Chaudfontaine,Liège
4052,Beaufays,Chaudfontaine,Liège
4053,Embourg,Chaudfontaine,Liège
4100,Seraing,Seraing,Liège
4100,Boncelles,Seraing,Liège
4101,Jemeppe,Seraing,Liège
4102,Ougrée,Seraing,Liège
4120,Neupré,Neupré,Liège
4120,Éhein,Neupré,Liège
4122,Plainevaux,Neupré,Liège
4130,Esneux,Esneux,Liège
4130,Tilff,Esneux,Liège
4140,Sprimont,Sprimont,Liège
4140,Rouvreux,Sprimont,Liège
4140,Dolembreux,Sprimont,Liège
4141,Louveigné,Sprimont,Liège
4160,Anthisnes,Anthisnes,Liège
4162,Hody,Anthisnes,Liège
4163,Tavier,Anthisnes,Liège
4180,Hamoir,Hamoir,Liège
4181,Filot,Hamoir,Liège
4190,Ferrières,Ferrières,Liège
4190,Xhoris,Ferrières,Liège
4190,My,Ferrières,Liège
4190,Werbomont,Ferrières,Liège
4190,Vieuxville,Ferrières,Liège
4210,Burdinne,Burdinne,Liège
4210,Marneffe,Burdinne,Liège
4210,Oteppe,Burdinne,Liège
4210,Hannêche,Burdinne,Liège
4210,Lamontzée,Burdinne,Liège
4217,Héron,Héron,Liège
4217,Lavoir,Héron,Liège
4218,Couthuin,Héron,Liège
4219,Wasseiges,Wasseiges,Liège
4219,Ambresin,Wasseiges,Liège
4219,Meeffe,Wasseiges,Liège
4219,Acosse,Wasseiges,Liège
4250,Geer,Geer,Liège
4250,Boëlhe,Geer,Liège
4252,Omal,Geer,Liège
4253,Darion,Geer,Liège
4254,Ligney,Geer,Liège
4257,Berloz,Berloz,Liège
4257,Corswarem,Berloz,Liège
4260,Braives,Braives,Liège
4260,Ciplet,Braives,Liège
4260,Fumal,Braives,Liège
4260,Fallais,Braives,Liège
4260,Avennes,Braives,Liège
4261,Latinne,Braives,Liège
4263,Tourinne,Braives,Liège
4280,Hannut,Hannut,Liège
4280,Thisnes,Hannut,Liège
4280,Avin,Hannut,Liège
4280,Moxhe,Hannut,Liège
4280,Crehen,Hannut,Liège
4280,Merdorp,Hannut,Liège
4280,Bertrée,Hannut,Liège
4280,Poucet,Hannut,Liège
4280,Abolens,Hannut,Liège
4280,Trognée,Hannut,Liège
4280,Wansin,Hannut,Liège
4280,Blehen,Hannut,Liège
4287,Lincent,Lincent,Liège
4287,Racour,Lincent,Liège
4287,Pellaines,Lincent,Liège
4300,Waremme,Waremme,Liège
4300,Oleye,Waremme,Liège
4300,Lantremange,Waremme,Liège
4300,Bettincourt,Waremme,Liège
4300,Bovenistier,Waremme,Liège
4300,Bleret,Waremme,Liège
4317,Faimes,Faimes,Liège
4317,Celles,Faimes,Liège
4317,Viemme,Faimes,Liège
4317,Les,Waleffes,Faimes
4317,Borlez,Faimes,Liège
4317,Aineffe,Faimes,Liège
4340,Awans,Awans,Liège
4340,Othée,Awans,Liège
4340,Fooz,Awans,Liège
4342,Hognoul,Awans,Liège
4350,Remicourt,Remicourt,Liège
4350,Momalle,Remicourt,Liège
4350,Pousset,Remicourt,Liège
4350,Lamine,Remicourt,Liège
4351,Hodeige,Remicourt,Liège
4357,Donceel,Donceel,Liège
4357,Haneffe,Donceel,Liège
4357,Jeneffe,Donceel,Liège
4357,Limont,Donceel,Liège
4360,Oreye,Oreye,Liège
4360,Grandville,Oreye,Liège
4360,Otrange,Oreye,Liège
4367,Crisnée,Crisnée,Liège
4367,Kemexhe,Crisnée,Liège
4367,Thys,Crisnée,Liège
4367,Odeur,Crisnée,Liège
4400,Flémalle,Flémalle,Liège
4400,Awirs,Flémalle,Liège
4400,Cahottes,Flémalle,Liège
4400,Chokier,Flémalle,Liège
4400,Gleixhe,Flémalle,Liège
4430,Ans,Ans,Liège
4431,Loncin,Ans,Liège
4432,Xhendremael,Ans,Liège
4432,Alleur,Ans,Liège
4450,Juprelle,Juprelle,Liège
4450,Slins,Juprelle,Liège
4450,Lantin,Juprelle,Liège
4452,Wihogne,Juprelle,Liège
4452,Paifve,Juprelle,Liège
4480,Engis,Engis,Liège
4500,Huy,Huy,Liège
4500,Tihange,Huy,Liège
4520,Wanze,Wanze,Liège
4520,Antheit,Wanze,Liège
4520,Moha,Wanze,Liège
4520,Vinalmont,Wanze,Liège
4520,Huccorgne,Wanze,Liège
4537,Verlaine,Verlaine,Liège
4537,Bodegnée,Verlaine,Liège
4540,Amay,Amay,Liège
4540,Ampsin,Amay,Liège
4540,Jehay,Amay,Liège
4540,Flône,Amay,Liège
4550,Nandrin,Nandrin,Liège
4557,Tinlot,Tinlot,Liège
4557,Fraiture,Tinlot,Liège
4557,Abée,Tinlot,Liège
4557,Ramelot,Tinlot,Liège
4557,Seny,Tinlot,Liège
4557,Scry,Tinlot,Liège
4560,Clavier,Clavier,Liège
4560,Ocquier,Clavier,Liège
4560,Les,Avins,Clavier
4560,Terwagne,Clavier,Liège
4560,Pailhe,Clavier,Liège
4570,Marchin,Marchin,Liège
4577,Modave,Modave,Liège
4577,Strée,Modave,Liège
4577,Outrelouxhe,Modave,Liège
4590,Ouffet,Ouffet,Liège
4590,Warzée,Ouffet,Liège
4590,Ellemelle,Ouffet,Liège
4600,Visé,Visé,Liège
4600,Lanaye,Visé,Liège
4600,Lixhe,Visé,Liège
4600,Richelle,Visé,Liège
4601,Argenteau,Visé,Liège
4602,Cheratte,Visé,Liège
4607,Dalhem,Dalhem,Liège
4607,Berneau,Dalhem,Liège
4607,Bombaye,Dalhem,Liège
4607,Mortroux,Dalhem,Liège
4607,Feneur,Dalhem,Liège
4608,Warsage,Dalhem,Liège
4608,Neufchâteau,Dalhem,Liège
4620,Fléron,Fléron,Liège
4621,Retinne,Fléron,Liège
4623,Magnée,Fléron,Liège
4624,Romsée,Fléron,Liège
4630,Soumagne,Soumagne,Liège
4630,Ayeneux,Soumagne,Liège
4630,Micheroux,Soumagne,Liège
4630,Évegnée,Soumagne,Liège
4631,Tignée,Soumagne,Liège
4633,Mélen,Soumagne,Liège
4650,Herve,Herve,Liège
4650,Chaineux,Herve,Liège
4650,Julémont,Herve,Liège
4651,Battice,Herve,Liège
4652,Xhendelesse,Herve,Liège
4653,Bolland,Herve,Liège
4654,Charneux,Herve,Liège
4670,Blegny,Blegny,Liège
4670,Trembleur,Blegny,Liège
4670,Mortier,Blegny,Liège
4671,Saive,Blegny,Liège
4671,Housse,Blegny,Liège
4671,Barchon,Blegny,Liège
4680,Oupeye,Oupeye,Liège
4680,Hermée,Oupeye,Liège
4683,Vivegnis,Oupeye,Liège
4684,Haccourt,Oupeye,Liège
4690,Bassenge,Bassenge,Liège
4690,Glons,Bassenge,Liège
4690,Wonck,Bassenge,Liège
4690,Boirs,Bassenge,Liège
4700,Eupen,Eupen,Liège
4701,Kettenis,Eupen,Liège
4710,Lontzen,Lontzen,Liège
4710,Herbesthal,Lontzen,Liège
4711,Walhorn,Lontzen,Liège
4720,La,Calamine,La
4728,Hergenrath,La,Calamine
4730,Raeren,Raeren,Liège
4730,Hauset,Raeren,Liège
4731,Eynatten,Raeren,Liège
4750,Butgenbach,Butgenbach,Liège
4750,Elsenborn,Butgenbach,Liège
4760,Bullange,Bullange,Liège
4760,Manderfeld,Bullange,Liège
4761,Rocherath,Bullange,Liège
4770,Amblève,Amblève,Liège
4770,Meyerode,Amblève,Liège
4771,Heppenbach,Amblève,Liège
4800,Verviers,Verviers,Liège
4800,Ensival,Verviers,Liège
4800,Lambermont,Verviers,Liège
4800,Polleur,Verviers,Liège
4801,Stembert,Verviers,Liège
4802,Heusy,Verviers,Liège
4820,Dison,Dison,Liège
4821,Andrimont,Dison,Liège
4830,Limbourg,Limbourg,Liège
4831,Bilstain,Limbourg,Liège
4834,Goé,Limbourg,Liège
4837,Baelen,Baelen,Liège
4837,Membach,Baelen,Liège
4840,Welkenraedt,Welkenraedt,Liège
4845,Jalhay,Jalhay,Liège
4845,Sart,Jalhay,Liège
4850,Plombières,Plombières,Liège
4850,Montzen,Plombières,Liège
4850,Moresnet,Plombières,Liège
4851,Gemmenich,Plombières,Liège
4851,Sippenaeken,Plombières,Liège
4852,Hombourg,Plombières,Liège
4860,Pepinster,Pepinster,Liège
4860,Wegnez,Pepinster,Liège
4860,Cornesse,Pepinster,Liège
4861,Soiron,Pepinster,Liège
4870,Trooz,Trooz,Liège
4870,Forêt,Trooz,Liège
4870,Fraipont,Trooz,Liège
4870,Nessonvaux,Trooz,Liège
4877,Olne,Olne,Liège
4880,Aubel,Aubel,Liège
4900,Spa,Spa,Liège
4910,Theux,Theux,Liège
4910,La,Reid,Theux
4910,Polleur,Theux,Liège
4920,Aywaille,Aywaille,Liège
4920,Harzé,Aywaille,Liège
4920,Ernonheid,Aywaille,Liège
4950,Waimes,Waimes,Liège
4950,Robertville,Waimes,Liège
4950,Faymonville,Waimes,Liège
4960,Malmedy,Malmedy,Liège
4960,Bévercé,Malmedy,Liège
4970,Stavelot,Stavelot,Liège
4970,Francorchamps,Stavelot,Liège
4987,Stoumont,Stoumont,Liège
4987,La,Gleize,Stoumont
4987,Chevron,Stoumont,Liège
4987,Rahier,Stoumont,Liège
4987,Lorcé,Stoumont,Liège
4990,Lierneux,Lierneux,Liège
4990,Bra,Lierneux,Liège
4990,Arbrefontaine,Lierneux,Liège
5000,Namur,Namur,Namur
5000,Beez,Namur,Namur
5001,Belgrade,Namur,Namur
5004,Bouge,Namur,Namur
5020,Vedrin,Namur,Namur
5020,Malonne,Namur,Namur
5020,Flawinne,Namur,Namur
5020,Temploux,Namur,Namur
5020,Champion,Namur,Namur
5020,Suarlée,Namur,Namur
5020,Daussoulx,Namur,Namur
5021,Boninne,Namur,Namur
5022,Cognelée,Namur,Namur
5024,Gelbressée,Namur,Namur
5030,Gembloux,Gembloux,Namur
5030,Lonzée,Gembloux,Namur
5030,Sauvenière,Gembloux,Namur
5030,Beuzet,Gembloux,Namur
5030,Ernage,Gembloux,Namur
5032,Mazy,Gembloux,Namur
5032,Bossière,Gembloux,Namur
5032,Isnes,Gembloux,Namur
5032,Bothey,Gembloux,Namur
5060,Sambreville,Sambreville,Namur
5060,Tamines,Sambreville,Namur
5060,Auvelais,Sambreville,Namur
5060,Falisolle,Sambreville,Namur
5060,Velaine,Sambreville,Namur
5060,Arsimont,Sambreville,Namur
5060,Moignelée,Sambreville,Namur
5060,Keumiée,Sambreville,Namur
5070,Le,Roux,Fosses
5080,La,Bruyère,La
5080,Rhisnes,La,Bruyère
5080,Émines,La,Bruyère
5080,Warisoulx,La,Bruyère
5081,Meux,La,Bruyère
5081,Bovesse,La,Bruyère
5100,Jambes,Namur,Namur
5100,Wépion,Namur,Namur
5100,Wierde,Namur,Namur
5100,Naninne,Namur,Namur
5100,Dave,Namur,Namur
5101,Erpent,Namur,Namur
5101,Loyers,Namur,Namur
5101,Lives,Namur,Namur
5140,Sombreffe,Sombreffe,Namur
5140,Ligny,Sombreffe,Namur
5140,Tongrinne,Sombreffe,Namur
5140,Boignée,Sombreffe,Namur
5150,Floreffe,Floreffe,Namur
5150,Franière,Floreffe,Namur
5150,Floriffoux,Floreffe,Namur
5150,Soye,Floreffe,Namur
5170,Profondeville,Profondeville,Namur
5170,Lustin,Profondeville,Namur
5170,Lesve,Profondeville,Namur
5170,Arbre,Profondeville,Namur
5170,Rivière,et,une
5300,Seilles,Andenne,Namur
5300,Andenne,Andenne,Namur
5300,Landenne,Andenne,Namur
5300,Sclayn,Andenne,Namur
5300,Vezin,Andenne,Namur
5300,Coutisse,Andenne,Namur
5300,Thon,Andenne,Namur
5300,Namêche,Andenne,Namur
5300,Maizeret,Andenne,Namur
5300,Bonneville,Andenne,Namur
5310,Éghezée,Éghezée,Namur
5310,Leuze,Éghezée,Namur
5310,Dhuy,Éghezée,Namur
5310,Liernu,Éghezée,Namur
5310,Hanret,Éghezée,Namur
5310,Bolinne,Éghezée,Namur
5310,Longchamps,Éghezée,Namur
5310,Taviers,Éghezée,Namur
5310,Mehaigne,Éghezée,Namur
5310,Branchon,Éghezée,Namur
5310,Boneffe,Éghezée,Namur
5310,Upigny,Éghezée,Namur
5330,Assesse,Assesse,Namur
5330,Maillen,Assesse,Namur
5332,Crupet,Assesse,Namur
5334,Florée,Assesse,Namur
5336,Courrière,Assesse,Namur
5340,Gesves,Gesves,Namur
5340,Haltinne,Gesves,Namur
5340,Mozet,Gesves,Namur
5340,Sorée,Gesves,Namur
5350,Ohey,Ohey,Namur
5350,Évelette,Ohey,Namur
5351,Haillot,Ohey,Namur
5352,Perwez,Ohey,Namur
5353,Goesnes,Ohey,Namur
5354,Jallet,Ohey,Namur
5360,Hamois,Hamois,Namur
5360,Natoye,Hamois,Namur
5361,Mohiville,Hamois,Namur
5361,Scy,Hamois,Namur
5362,Achet,Hamois,Namur
5363,Emptinne,Hamois,Namur
5364,Schaltin,Hamois,Namur
5370,Havelange,Havelange,Namur
5370,Flostoy,Havelange,Namur
5370,Jeneffe,Havelange,Namur
5370,Porcheresse,Havelange,Namur
5370,Verlée,Havelange,Namur
5372,Méan,Havelange,Namur
5374,Maffe,Havelange,Namur
5376,Miécret,Havelange,Namur
5380,Fernelmont,Fernelmont,Namur
5380,Forville,Fernelmont,Namur
5380,Hingeon,Fernelmont,Namur
5380,Marchovelette,Fernelmont,Namur
5380,Pontillas,Fernelmont,Namur
5380,Hemptinne,Fernelmont,Namur
5380,Bierwart,Fernelmont,Namur
5380,Tillier,Fernelmont,Namur
5500,Dinant,Dinant,Namur
5500,Anseremme,Dinant,Namur
5500,Falmignoul,Dinant,Namur
5500,Dréhance,Dinant,Namur
5500,Falmagne,Dinant,Namur
5500,Furfooz,Dinant,Namur
5501,Lisogne,Dinant,Namur
5502,Thynes,Dinant,Namur
5503,Sorinnes,Dinant,Namur
5520,Onhaye,Onhaye,Namur
5521,Serville,Onhaye,Namur
5522,Falaën,Onhaye,Namur
5523,Sommière,Onhaye,Namur
5523,Weillen,Onhaye,Namur
5524,Gerin,Onhaye,Namur
5530,Yvoir,Yvoir,Namur
5530,Godinne,Yvoir,Namur
5530,Évrehailles,Yvoir,Namur
5530,Durnal,Yvoir,Namur
5530,Spontin,Yvoir,Namur
5530,Mont,Yvoir,Namur
5530,Purnode,Yvoir,Namur
5530,Dorinne,Yvoir,Namur
5530,Houx,Yvoir,Namur
5537,Anhée,Anhée,Namur
5537,Bioul,Anhée,Namur
5537,Denée,Anhée,Namur
5537,Warnant,Anhée,Namur
5537,Salet,Anhée,Namur
5537,Sosoye,Anhée,Namur
5537,Maredret,Anhée,Namur
5540,Hastière,Hastière,Namur
5540,Waulsort,Hastière,Namur
5542,Blaimont,Hastière,Namur
5543,Heer,Hastière,Namur
5544,Agimont,Hastière,Namur
5555,Bièvre,Bièvre,Namur
5555,Graide,Bièvre,Namur
5555,Naomé,Bièvre,Namur
5555,Oizy,Bièvre,Namur
5555,Baillamont,Bièvre,Namur
5555,Cornimont,Bièvre,Namur
5555,Bellefontaine,Bièvre,Namur
5560,Houyet,Houyet,Namur
5560,Ciergnon,Houyet,Namur
5560,Hulsonniaux,Houyet,Namur
5560,Finnevaux,Houyet,Namur
5561,Celles,Houyet,Namur
5562,Custinne,Houyet,Namur
5563,Hour,Houyet,Namur
5564,Wanlin,Houyet,Namur
5570,Beauraing,Beauraing,Namur
5570,Winenne,Beauraing,Namur
5570,Felenne,Beauraing,Namur
5570,Vonêche,Beauraing,Namur
5570,Baronville,Beauraing,Namur
5570,Feschaux,Beauraing,Namur
5570,Javingue,Beauraing,Namur
5570,Wancennes,Beauraing,Namur
5570,Dion,Beauraing,Namur
5570,Honnay,Beauraing,Namur
5571,Wiesme,Beauraing,Namur
5572,Focant,Beauraing,Namur
5574,Pondrôme,Beauraing,Namur
5575,Gedinne,Gedinne,Namur
5575,Rienne,Gedinne,Namur
5575,Vencimont,Gedinne,Namur
5575,Willerzie,Gedinne,Namur
5575,Malvoisin,Gedinne,Namur
5575,Houdremont,Gedinne,Namur
5575,Patignies,Gedinne,Namur
5576,Froidfontaine,Beauraing,Namur
5580,Rochefort,Rochefort,Namur
5580,Jemelle,Rochefort,Namur
5580,Wavreille,Rochefort,Namur
5580,Buissonville,Rochefort,Namur
5580,Lessive,Rochefort,Namur
5580,Éprave,Rochefort,Namur
5590,Ciney,Ciney,Namur
5590,Leignon,Ciney,Namur
5590,Sovet,Ciney,Namur
5590,Serinchamps,Ciney,Namur
5590,Chevetogne,Ciney,Namur
5590,Achêne,Ciney,Namur
5590,Pessoux,Ciney,Namur
5590,Conneux,Ciney,Namur
5590,Braibant,Ciney,Namur
5600,Philippeville,Philippeville,Namur
5600,Romedenne,Philippeville,Namur
5600,Neuville,Philippeville,Namur
5600,Surice,Philippeville,Namur
5600,Sautour,Philippeville,Namur
5600,Jamagne,Philippeville,Namur
5600,Merlemont,Philippeville,Namur
5600,Fagnolle,Philippeville,Namur
5600,Roly,Philippeville,Namur
5600,Franchimont,Philippeville,Namur
5600,Vodecée,Philippeville,Namur
5600,Samart,Philippeville,Namur
5600,Jamiolle,Philippeville,Namur
5600,Omezée,Philippeville,Namur
5620,Florennes,Florennes,Namur
5620,Morialmé,Florennes,Namur
5620,Hanzinelle,Florennes,Namur
5620,Hanzinne,Florennes,Namur
5620,Flavion,Florennes,Namur
5620,Rosée,Florennes,Namur
5620,Morville,Florennes,Namur
5620,Corenne,Florennes,Namur
5620,Hemptinne,Florennes,Namur
5630,Cerfontaine,Cerfontaine,Namur
5630,Senzeille,Cerfontaine,Namur
5630,Silenrieux,Cerfontaine,Namur
5630,Daussois,Cerfontaine,Namur
5630,Soumoy,Cerfontaine,Namur
5640,Mettet,Mettet,Namur
5640,Biesme,Mettet,Namur
5640,Biesmerée,Mettet,Namur
5640,Oret,Mettet,Namur
5640,Graux,Mettet,Namur
5641,Furnaux,Mettet,Namur
5646,Stave,Mettet,Namur
5650,Walcourt,Walcourt,Namur
5650,Fraire,Walcourt,Namur
5650,Chastrès,Walcourt,Namur
5650,Clermont,Walcourt,Namur
5650,Pry,Walcourt,Namur
5650,Castillon,Walcourt,Namur
5650,Vogenée,Walcourt,Namur
5650,Fontenelle,Walcourt,Namur
5651,Tarcienne,Walcourt,Namur
5651,Laneffe,Walcourt,Namur
5651,Somzée,Walcourt,Namur
5651,Gourdinne,Walcourt,Namur
5651,Berzée,Walcourt,Namur
5651,Rognée,Walcourt,Namur
5660,Couvin,Couvin,Namur
5660,Mariembourg,Couvin,Namur
5660,Pesche,Couvin,Namur
5660,Petigny,Couvin,Namur
5660,Presgaux,Couvin,Namur
5660,Le,Brûly,Couvin
5660,Gonrieux,Couvin,Namur
5660,Aublain,Couvin,Namur
5660,Dailly,Couvin,Namur
5670,Viroinval,Viroinval,Namur
5670,Nismes,Viroinval,Namur
5670,Treignes,Viroinval,Namur
5670,Mazée,Viroinval,Namur
5670,Dourbes,Viroinval,Namur
5670,Le,Mesnil,Viroinval
5680,Doische,Doische,Namur
5680,Gimnée,Doische,Namur
5680,Romerée,Doische,Namur
5680,Gochenée,Doische,Namur
5680,Soulme,Doische,Namur
5680,Vaucelles,Doische,Namur
5680,Vodelée,Doische,Namur
5680,Niverlée,Doische,Namur
6000,Charleroi,Charleroi,Hainaut
6001,Marcinelle,Charleroi,Hainaut
6010,Couillet,Charleroi,Hainaut
6020,Dampremy,Charleroi,Hainaut
6030,Goutroux,Charleroi,Hainaut
6040,Jumet,Charleroi,Hainaut
6041,Gosselies,Charleroi,Hainaut
6042,Lodelinsart,Charleroi,Hainaut
6043,Ransart,Charleroi,Hainaut
6044,Roux,Charleroi,Hainaut
6060,Gilly,Charleroi,Hainaut
6150,Anderlues,Anderlues,Hainaut
6180,Courcelles,Courcelles,Hainaut
6182,Souvret,Courcelles,Hainaut
6183,Trazegnies,Courcelles,Hainaut
6200,Châtelet,Châtelet,Hainaut
6200,Châtelineau,Châtelet,Hainaut
6200,Bouffioulx,Châtelet,Hainaut
6210,Les,Bons,Villers
6210,Rèves,Les,Bons
6210,Wayaux,Les,Bons
6211,Mellet,Les,Bons
6220,Fleurus,Fleurus,Hainaut
6220,Lambusart,Fleurus,Hainaut
6220,Wangenies,Fleurus,Hainaut
6220,Heppignies,Fleurus,Hainaut
6222,Brye,Fleurus,Hainaut
6223,Wagnelée,Fleurus,Hainaut
6240,Farciennes,Farciennes,Hainaut
6240,Pironchamps,Farciennes,Hainaut
6280,Gerpinnes,Gerpinnes,Hainaut
6280,Acoz,Gerpinnes,Hainaut
6280,Loverval,Gerpinnes,Hainaut
6280,Gougnies,Gerpinnes,Hainaut
6280,Joncret,Gerpinnes,Hainaut
6440,Froidchapelle,Froidchapelle,Hainaut
6440,Vergnies,Froidchapelle,Hainaut
6440,Fourbechies,Froidchapelle,Hainaut
6441,Erpion,Froidchapelle,Hainaut
6460,Chimay,Chimay,Hainaut
6460,Salles,Chimay,Hainaut
6460,Bailièvre,Chimay,Hainaut
6460,Robechies,Chimay,Hainaut
6461,Virelles,Chimay,Hainaut
6462,Vaulx,Chimay,Hainaut
6463,Lompret,Chimay,Hainaut
6464,Forges,Chimay,Hainaut
6464,Baileux,Chimay,Hainaut
6464,Bourlers,Chimay,Hainaut
6464,Rièzes,Chimay,Hainaut
6500,Beaumont,Beaumont,Hainaut
6500,Thirimont,Beaumont,Hainaut
6500,Renlies,Beaumont,Hainaut
6500,Leugnies,Beaumont,Hainaut
6500,Barbençon,Beaumont,Hainaut
6511,Strée,Beaumont,Hainaut
6530,Thuin,Thuin,Hainaut
6532,Ragnies,Thuin,Hainaut
6533,Biercée,Thuin,Hainaut
6534,Gozée,Thuin,Hainaut
6536,Thuillies,Thuin,Hainaut
6536,Donstiennes,Thuin,Hainaut
6540,Lobbes,Lobbes,Hainaut
6560,Erquelinnes,Erquelinnes,Hainaut
6590,Momignies,Momignies,Hainaut
6591,Macon,Momignies,Hainaut
6593,Macquenoise,Momignies,Hainaut
6594,Beauwelz,Momignies,Hainaut
6596,Seloignes,Momignies,Hainaut
6600,Bastogne,Bastogne,Luxembourg
6600,Wardin,Bastogne,Luxembourg
6600,Noville,Bastogne,Luxembourg
6600,Longvilly,Bastogne,Luxembourg
6630,Martelange,Martelange,Luxembourg
6637,Fauvillers,Fauvillers,Luxembourg
6637,Hollange,Fauvillers,Luxembourg
6637,Tintange,Fauvillers,Luxembourg
6660,Houffalize,Houffalize,Luxembourg
6660,Nadrin,Houffalize,Luxembourg
6661,Mont,Houffalize,Luxembourg
6661,Tailles,Houffalize,Luxembourg
6662,Tavigny,Houffalize,Luxembourg
6663,Mabompré,Houffalize,Luxembourg
6666,Wibrin,Houffalize,Luxembourg
6670,Gouvy,Gouvy,Luxembourg
6670,Limerlé,Gouvy,Luxembourg
6671,Bovigny,Gouvy,Luxembourg
6672,Beho,Gouvy,Luxembourg
6673,Cherain,Gouvy,Luxembourg
6674,Montleban,Gouvy,Luxembourg
6686,Flamierge,Bertogne,Luxembourg
6687,Bertogne,Bertogne,Luxembourg
6688,Longchamps,Bertogne,Luxembourg
6690,Vielsalm,Vielsalm,Luxembourg
6690,Bihain,Vielsalm,Luxembourg
6700,Arlon,Arlon,Luxembourg
6700,Bonnert,Arlon,Luxembourg
6700,Heinsch,Arlon,Luxembourg
6700,Toernich,Arlon,Luxembourg
6704,Guirsch,Arlon,Luxembourg
6706,Autelbas,Arlon,Luxembourg
6717,Attert,Attert,Luxembourg
6717,Nothomb,Attert,Luxembourg
6717,Nobressart,Attert,Luxembourg
6717,Tontelange,Attert,Luxembourg
6717,Thiaumont,Attert,Luxembourg
6720,Habay,Habay,Luxembourg
6720,Hachy,Habay,Luxembourg
6721,Anlier,Habay,Luxembourg
6724,Rulles,Habay,Luxembourg
6724,Marbehan,Habay,Luxembourg
6724,Houdemont,Habay,Luxembourg
6730,Tintigny,Tintigny,Luxembourg
6730,Bellefontaine,Tintigny,Luxembourg
6730,Rossignol,Tintigny,Luxembourg
6740,Étalle,Étalle,Luxembourg
6741,Vance,Étalle,Luxembourg
6742,Chantemelle,Étalle,Luxembourg
6743,Buzenol,Étalle,Luxembourg
6750,Musson,Musson,Luxembourg
6750,Signeulx,Musson,Luxembourg
6760,Virton,Virton,Luxembourg
6760,Bleid,Virton,Luxembourg
6760,Èthe,Virton,Luxembourg
6761,Latour,Virton,Luxembourg
6767,Rouvroy,Rouvroy,Luxembourg
6767,Dampicourt,Rouvroy,Luxembourg
6767,Ruette,Virton,Luxembourg
6767,Lamorteau,Rouvroy,Luxembourg
6767,Torgny,Rouvroy,Luxembourg
6767,Couvreux,Rouvroy,Luxembourg
6767,Harnoncourt,Rouvroy,Luxembourg
6767,Montquintin,Rouvroy,Luxembourg
6780,Messancy,Messancy,Luxembourg
6780,Hondelange,Messancy,Luxembourg
6780,Wolkrange,Messancy,Luxembourg
6781,Sélange,Messancy,Luxembourg
6782,Habergy,Messancy,Luxembourg
6790,Aubange,Aubange,Luxembourg
6791,Athus,Aubange,Luxembourg
6792,Halanzy,Aubange,Luxembourg
6792,Rachecourt,Aubange,Luxembourg
6810,Chiny,Chiny,Luxembourg
6810,Izel,Chiny,Luxembourg
6810,Jamoigne,Chiny,Luxembourg
6811,Les,Bulles,Chiny
6812,Suxy,Chiny,Luxembourg
6813,Termes,Chiny,Luxembourg
6820,Florenville,Florenville,Luxembourg
6820,Muno,Florenville,Luxembourg
6820,Fontenoille,Florenville,Luxembourg
6821,Lacuisine,Florenville,Luxembourg
6824,Chassepierre,Florenville,Luxembourg
6830,Bouillon,Bouillon,Luxembourg
6830,Rochehaut,Bouillon,Luxembourg
6830,Poupehan,Bouillon,Luxembourg
6830,Les,Hayons,Bouillon
6831,Noirefontaine,Bouillon,Luxembourg
6832,Sensenruth,Bouillon,Luxembourg
6833,Ucimont,Bouillon,Luxembourg
6833,Vivy,Bouillon,Luxembourg
6834,Bellevaux,Bouillon,Luxembourg
6836,Dohan,Bouillon,Luxembourg
6838,Corbion,Bouillon,Luxembourg
6840,Neufchâteau,Neufchâteau,Luxembourg
6840,Longlier,Neufchâteau,Luxembourg
6840,Grapfontaine,Neufchâteau,Luxembourg
6840,Tournay,Neufchâteau,Luxembourg
6840,Hamipré,Neufchâteau,Luxembourg
6840,Grandvoir,Neufchâteau,Luxembourg
6850,Paliseul,Paliseul,Luxembourg
6850,Carlsbourg,Paliseul,Luxembourg
6850,Opont,Paliseul,Luxembourg
6850,Offagne,Paliseul,Luxembourg
6851,Nollevaux,Paliseul,Luxembourg
6852,Maissin,Paliseul,Luxembourg
6853,Framont,Paliseul,Luxembourg
6860,Léglise,Léglise,Luxembourg
6860,Assenois,Léglise,Luxembourg
6860,Mellier,Léglise,Luxembourg
6860,Witry,Léglise,Luxembourg
6860,Ebly,Léglise,Luxembourg
6860,Vlessart,Léglise,Luxembourg
6880,Bertrix,Bertrix,Luxembourg
6880,Orgeo,Bertrix,Luxembourg
6880,Jehonville,Bertrix,Luxembourg
6880,Cugnon,Bertrix,Luxembourg
6887,Herbeumont,Herbeumont,Luxembourg
6887,Straimont,Herbeumont,Luxembourg
6890,Libin,Libin,Luxembourg
6890,Ochamps,Libin,Luxembourg
6890,Transinne,Libin,Luxembourg
6890,Villance,Libin,Luxembourg
6890,Redu,Libin,Luxembourg
6890,Anloy,Libin,Luxembourg
6890,Smuid,Libin,Luxembourg
6920,Wellin,Wellin,Luxembourg
6920,Sohier,Wellin,Luxembourg
6921,Chanly,Wellin,Luxembourg
6922,Halma,Wellin,Luxembourg
6924,Lomprez,Wellin,Luxembourg
6927,Tellin,Tellin,Luxembourg
6927,Bure,Tellin,Luxembourg
6927,Resteigne,Tellin,Luxembourg
6927,Grupont,Tellin,Luxembourg
6929,Daverdisse,Daverdisse,Luxembourg
6929,Gembes,Daverdisse,Luxembourg
6929,Porcheresse,Daverdisse,Luxembourg
6940,Durbuy,Durbuy,Luxembourg
6940,Barvaux,Durbuy,Luxembourg
6940,Grandhan,Durbuy,Luxembourg
6940,Wéris,Durbuy,Luxembourg
6940,Septon,Durbuy,Luxembourg
6941,Tohogne,Durbuy,Luxembourg
6941,Bomal,Durbuy,Luxembourg
6941,Heyd,Durbuy,Luxembourg
6941,Izier,Durbuy,Luxembourg
6941,Borlon,Durbuy,Luxembourg
6941,Bende,Durbuy,Luxembourg
6950,Nassogne,Nassogne,Luxembourg
6950,Harsin,Nassogne,Luxembourg
6951,Bande,Nassogne,Luxembourg
6952,Grune,Nassogne,Luxembourg
6953,Forrières,Nassogne,Luxembourg
6953,Ambly,Nassogne,Luxembourg
6953,Masbourg,Nassogne,Luxembourg
6953,Lesterny,Nassogne,Luxembourg
6960,Manhay,Manhay,Luxembourg
6960,Harre,Manhay,Luxembourg
6960,Grandménil,Manhay,Luxembourg
6960,Dochamps,Manhay,Luxembourg
6960,Odeigne,Manhay,Luxembourg
6960,Malempré,Manhay,Luxembourg
6970,Tenneville,Tenneville,Luxembourg
6971,Champlon,Tenneville,Luxembourg
6972,Erneuville,Tenneville,Luxembourg
6980,Beausaint,La,Roche
6982,Samrée,La,Roche
6983,Ortho,La,Roche
6984,Hives,La,Roche
6986,Halleux,La,Roche
6987,Rendeux,Rendeux,Luxembourg
6987,Marcourt,Rendeux,Luxembourg
6987,Hodister,Rendeux,Luxembourg
6987,Beffe,Rendeux,Luxembourg
6990,Hotton,Hotton,Luxembourg
6990,Fronville,Hotton,Luxembourg
6990,Hampteau,Hotton,Luxembourg
6990,Marenne,Hotton,Luxembourg
6997,Érezée,Érezée,Luxembourg
6997,Soy,Érezée,Luxembourg
6997,Mormont,Érezée,Luxembourg
6997,Amonines,Érezée,Luxembourg
7000,Mons,Mons,Hainaut
7011,Ghlin,Mons,Hainaut
7012,Jemappes,Mons,Hainaut
7012,Flénu,Mons,Hainaut
7020,Nimy,Mons,Hainaut
7020,Maisières,Mons,Hainaut
7021,Havré,Mons,Hainaut
7022,Hyon,Mons,Hainaut
7022,Mesvin,Mons,Hainaut
7022,Harmignies,Mons,Hainaut
7022,Harveng,Mons,Hainaut
7022,Nouvelles,Mons,Hainaut
7024,Ciply,Mons,Hainaut
7032,Spiennes,Mons,Hainaut
7033,Cuesmes,Mons,Hainaut
7034,Obourg,Mons,Hainaut
7040,Quévy,Quévy,Hainaut
7040,Genly,Quévy,Hainaut
7040,Blaregnies,Quévy,Hainaut
7040,Aulnois,Quévy,Hainaut
7040,Bougnies,Quévy,Hainaut
7040,Asquillies,Quévy,Hainaut
7041,Givry,Quévy,Hainaut
7041,Havay,Quévy,Hainaut
7050,Jurbise,Jurbise,Hainaut
7050,Herchies,Jurbise,Hainaut
7050,Erbaut,Jurbise,Hainaut
7050,Erbisœul,Jurbise,Hainaut
7060,Soignies,Soignies,Hainaut
7060,Horrues,Soignies,Hainaut
7061,Casteau,Soignies,Hainaut
7061,Thieusies,Soignies,Hainaut
7062,Naast,Soignies,Hainaut
7063,Neufvilles,Soignies,Hainaut
7070,Le,Rœulx,Le
7070,Thieu,Le,Rœulx
7070,Mignault,Le,Rœulx
7070,Gottignies,Le,Rœulx
7080,Frameries,Frameries,Hainaut
7080,La,Bouverie,Frameries
7080,Eugies,Frameries,Hainaut
7080,Noirchain,Frameries,Hainaut
7100,La,Louvière,La
7100,Trivières,La,Louvière
7110,Maurage,La,Louvière
7110,Boussoit,La,Louvière
7120,Estinnes,Estinnes,Hainaut
7120,Haulchin,Estinnes,Hainaut
7120,Peissant,Estinnes,Hainaut
7120,Rouveroy,Estinnes,Hainaut
7120,Faurœulx,Estinnes,Hainaut
7130,Binche,Binche,Hainaut
7130,Bray,Binche,Hainaut
7130,Battignies,Binche,Hainaut
7131,Waudrez,Binche,Hainaut
7133,Buvrinnes,Binche,Hainaut
7134,Ressaix,Binche,Hainaut
7134,Épinois,Binche,Hainaut
7140,Morlanwelz,Morlanwelz,Hainaut
7141,Carnières,Morlanwelz,Hainaut
7170,Manage,Manage,Hainaut
7170,La,Hestre,Manage
7170,Bellecourt,Manage,Hainaut
7180,Seneffe,Seneffe,Hainaut
7181,Feluy,Seneffe,Hainaut
7181,Arquennes,Seneffe,Hainaut
7181,Familleureux,Seneffe,Hainaut
7190,Écaussinnes,Écaussinnes,Hainaut
7300,Boussu,Boussu,Hainaut
7301,Hornu,Boussu,Hainaut
7320,Bernissart,Bernissart,Hainaut
7321,Blaton,Bernissart,Hainaut
7321,Harchies,Bernissart,Hainaut
7322,Pommerœul,Bernissart,Hainaut
7340,Colfontaine,Colfontaine,Hainaut
7340,Pâturages,Colfontaine,Hainaut
7340,Warquignies,Colfontaine,Hainaut
7340,Wasmes,Colfontaine,Hainaut
7350,Hensies,Hensies,Hainaut
7350,Thulin,Hensies,Hainaut
7350,Hainin,Hensies,Hainaut
7370,Dour,Dour,Hainaut
7370,Élouges,Dour,Hainaut
7370,Wihéries,Dour,Hainaut
7370,Blaugies,Dour,Hainaut
7380,Quiévrain,Quiévrain,Hainaut
7380,Baisieux,Quiévrain,Hainaut
7382,Audregnies,Quiévrain,Hainaut
7387,Honnelles,Honnelles,Hainaut
7387,Roisin,Honnelles,Hainaut
7387,Angre,Honnelles,Hainaut
7387,Erquennes,Honnelles,Hainaut
7387,Angreau,Honnelles,Hainaut
7387,Athis,Honnelles,Hainaut
7387,Autreppe,Honnelles,Hainaut
7387,Onnezies,Honnelles,Hainaut
7387,Marchipont,Honnelles,Hainaut
7390,Quaregnon,Quaregnon,Hainaut
7390,Wasmuel,Quaregnon,Hainaut
7500,Tournai,Tournai,Hainaut
7500,Ere,Tournai,Hainaut
7501,Orcq,Tournai,Hainaut
7502,Esplechin,Tournai,Hainaut
7503,Froyennes,Tournai,Hainaut
7504,Froidmont,Tournai,Hainaut
7506,Willemeau,Tournai,Hainaut
7520,Templeuve,Tournai,Hainaut
7521,Chercq,Tournai,Hainaut
7522,Blandain,Tournai,Hainaut
7522,Marquain,Tournai,Hainaut
7522,Lamain,Tournai,Hainaut
7522,Hertain,Tournai,Hainaut
7531,Havinnes,Tournai,Hainaut
7532,Beclers,Tournai,Hainaut
7533,Thimougies,Tournai,Hainaut
7534,Barry,Tournai,Hainaut
7534,Maulde,Tournai,Hainaut
7536,Vaulx,Tournai,Hainaut
7538,Vezon,Tournai,Hainaut
7540,Kain,Tournai,Hainaut
7540,Rumillies,Tournai,Hainaut
7540,Melles,Tournai,Hainaut
7540,Quartes,Tournai,Hainaut
7543,Mourcourt,Tournai,Hainaut
7548,Warchin,Tournai,Hainaut
7600,Péruwelz,Péruwelz,Hainaut
7601,Roucourt,Péruwelz,Hainaut
7602,Bury,Péruwelz,Hainaut
7604,Baugnies,Péruwelz,Hainaut
7604,Braffe,Péruwelz,Hainaut
7604,Callenelle,Péruwelz,Hainaut
7604,Brasménil,Péruwelz,Hainaut
7608,Wiers,Péruwelz,Hainaut
7610,Rumes,Rumes,Hainaut
7611,La,Glanerie,Rumes
7618,Taintignies,Rumes,Hainaut
7620,Brunehaut,Brunehaut,Hainaut
7620,Hollain,Brunehaut,Hainaut
7620,Bléharies,Brunehaut,Hainaut
7620,Guignies,Brunehaut,Hainaut
7621,Lesdain,Brunehaut,Hainaut
7622,Laplaigne,Brunehaut,Hainaut
7623,Rongy,Brunehaut,Hainaut
7624,Howardries,Brunehaut,Hainaut
7640,Antoing,Antoing,Hainaut
7640,Maubray,Antoing,Hainaut
7641,Bruyelle,Antoing,Hainaut
7642,Calonne,Antoing,Hainaut
7643,Fontenoy,Antoing,Hainaut
7700,Mouscron,Mouscron,Hainaut
7700,Luingne,Mouscron,Hainaut
7711,Dottignies,Mouscron,Hainaut
7712,Herseaux,Mouscron,Hainaut
7730,Estaimpuis,Estaimpuis,Hainaut
7730,Néchin,Estaimpuis,Hainaut
7730,Estaimbourg,Estaimpuis,Hainaut
7730,Évregnies,Estaimpuis,Hainaut
7730,Bailleul,Estaimpuis,Hainaut
7740,Pecq,Pecq,Hainaut
7740,Warcoing,Pecq,Hainaut
7742,Hérinnes,Pecq,Hainaut
7743,Obigies,Pecq,Hainaut
7743,Esquelmes,Pecq,Hainaut
7760,Celles,Celles,Hainaut
7760,Velaines,Celles,Hainaut
7760,Pottes,Celles,Hainaut
7760,Escanaffles,Celles,Hainaut
7760,Molenbaix,Celles,Hainaut
7760,Popuelles,Celles,Hainaut
7800,Ath,Ath,Hainaut
7800,Lanquesaint,Ath,Hainaut
7801,Irchonwelz,Ath,Hainaut
7802,Ormeignies,Ath,Hainaut
7803,Bouvignies,Ath,Hainaut
7804,Rebaix,Ath,Hainaut
7804,Ostiches,Ath,Hainaut
7810,Maffle,Ath,Hainaut
7811,Arbre,Ath,Hainaut
7812,Mainvault,Ath,Hainaut
7812,Ligne,Ath,Hainaut
7812,Houtaing,Ath,Hainaut
7812,Moulbaix,Ath,Hainaut
7822,Isières,Ath,Hainaut
7822,Ghislenghien,Ath,Hainaut
7823,Gibecq,Ath,Hainaut
7830,Silly,Silly,Hainaut
7830,Bassilly,Silly,Hainaut
7830,Graty,Silly,Hainaut
7830,Hoves,Silly,Hainaut
7830,Hellebecq,Silly,Hainaut
7830,Thoricourt,Silly,Hainaut
7830,Fouleng,Silly,Hainaut
7830,Gondregnies,Silly,Hainaut
7850,Enghien,Enghien,Hainaut
7850,Marcq,Enghien,Hainaut
7860,Lessines,Lessines,Hainaut
7861,Wannebecq,Lessines,Hainaut
7861,Papignies,Lessines,Hainaut
7862,Ogy,Lessines,Hainaut
7863,Ghoy,Lessines,Hainaut
7866,Ollignies,Lessines,Hainaut
7870,Lens,Lens,Hainaut
7870,Bauffe,Lens,Hainaut
7870,Lombise,Lens,Hainaut
7880,Flobecq,Flobecq,Hainaut
7890,Ellezelles,Ellezelles,Hainaut
7890,Wodecq,Ellezelles,Hainaut
7890,Lahamaide,Ellezelles,Hainaut
7940,Brugelette,Brugelette,Hainaut
7941,Attre,Brugelette,Hainaut
7943,Gages,Brugelette,Hainaut
7950,Chièvres,Chièvres,Hainaut
7950,Huissignies,Chièvres,Hainaut
7950,Ladeuze,Chièvres,Hainaut
7950,Grosage,Chièvres,Hainaut
7970,Belœil,Belœil,Hainaut
7971,Basècles,Belœil,Hainaut
7971,Wadelincourt,Belœil,Hainaut
7971,Thumaide,Belœil,Hainaut
7971,Ramegnies,Belœil,Hainaut
7972,Aubechies,Belœil,Hainaut
7973,Stambruges,Belœil,Hainaut
7973,Quevaucamps,Belœil,Hainaut
7973,Grandglise,Belœil,Hainaut
8000,Brugge,Brugge,Flandre
8000,Koolkerke,Brugge,Flandre
8020,Oostkamp,Oostkamp,Flandre
8020,Ruddervoorde,Oostkamp,Flandre
8020,Hertsberge,Oostkamp,Flandre
8020,Waardamme,Oostkamp,Flandre
8210,Zedelgem,Zedelgem,Flandre
8210,Loppem,Zedelgem,Flandre
8210,Veldegem,Zedelgem,Flandre
8211,Aartrijke,Zedelgem,Flandre
8310,Assebroek,Brugge,Flandre
8340,Damme,Damme,Flandre
8340,Sijsele,Damme,Flandre
8340,Moerkerke,Damme,Flandre
8340,Oostkerke,Damme,Flandre
8340,Lapscheure,Damme,Flandre
8340,Hoeke,Damme,Flandre
8370,Blankenberge,Blankenberge,Flandre
8370,Uitkerke,Blankenberge,Flandre
8377,Zuienkerke,Zuienkerke,Flandre
8377,Nieuwmunster,Zuienkerke,Flandre
8377,Meetkerke,Zuienkerke,Flandre
8377,Houtave,Zuienkerke,Flandre
8380,Lissewege,Brugge,Flandre
8380,Zeebrugge,Brugge,Flandre
8380,Dudzele,Brugge,Flandre
8400,Oostende,Oostende,Flandre
8400,Stene,Oostende,Flandre
8400,Zandvoorde,Oostende,Flandre
8420,De,Haan,De
8420,Klemskerke,De,Haan
8420,Wenduine,De,Haan
8421,Vlissegem,De,Haan
8430,Middelkerke,Middelkerke,Flandre
8431,Wilskerke,Middelkerke,Flandre
8432,Leffinge,Middelkerke,Flandre
8433,Slijpe,Middelkerke,Flandre
8433,Schore,Middelkerke,Flandre
8434,Westende,Middelkerke,Flandre
8434,Lombardsijde,Middelkerke,Flandre
8450,Bredene,Bredene,Flandre
8460,Oudenburg,Oudenburg,Flandre
8460,Ettelgem,Oudenburg,Flandre
8460,Westkerke,Oudenburg,Flandre
8460,Roksem,Oudenburg,Flandre
8470,Gistel,Gistel,Flandre
8470,Moere,Gistel,Flandre
8470,Snaaskerke,Gistel,Flandre
8470,Zevekote,Gistel,Flandre
8480,Ichtegem,Ichtegem,Flandre
8480,Eernegem,Ichtegem,Flandre
8480,Bekegem,Ichtegem,Flandre
8490,Jabbeke,Jabbeke,Flandre
8490,Varsenare,Jabbeke,Flandre
8490,Snellegem,Jabbeke,Flandre
8490,Zerkegem,Jabbeke,Flandre
8490,Stalhille,Jabbeke,Flandre
8500,Kortrijk,Kortrijk,Flandre
8501,Heule,Kortrijk,Flandre
8501,Bissegem,Kortrijk,Flandre
8510,Marke,Kortrijk,Flandre
8510,Bellegem,Kortrijk,Flandre
8510,Rollegem,Kortrijk,Flandre
8510,Kooigem,Kortrijk,Flandre
8511,Aalbeke,Kortrijk,Flandre
8520,Kuurne,Kuurne,Flandre
8530,Harelbeke,Harelbeke,Flandre
8531,Bavikhove,Harelbeke,Flandre
8531,Hulste,Harelbeke,Flandre
8540,Deerlijk,Deerlijk,Flandre
8550,Zwevegem,Zwevegem,Flandre
8551,Heestert,Zwevegem,Flandre
8552,Moen,Zwevegem,Flandre
8553,Otegem,Zwevegem,Flandre
8560,Wevelgem,Wevelgem,Flandre
8560,Gullegem,Wevelgem,Flandre
8560,Moorsele,Wevelgem,Flandre
8570,Anzegem,Anzegem,Flandre
8570,Vichte,Anzegem,Flandre
8570,Ingooigem,Anzegem,Flandre
8570,Gijzelbrechtegem,Anzegem,Flandre
8572,Kaster,Anzegem,Flandre
8573,Tiegem,Anzegem,Flandre
8580,Avelgem,Avelgem,Flandre
8581,Kerkhove,Avelgem,Flandre
8581,Waarmaarde,Avelgem,Flandre
8582,Outrijve,Avelgem,Flandre
8583,Bossuit,Avelgem,Flandre
8600,Diksmuide,Diksmuide,Flandre
8600,Esen,Diksmuide,Flandre
8600,Beerst,Diksmuide,Flandre
8600,Keiem,Diksmuide,Flandre
8600,Leke,Diksmuide,Flandre
8600,Vladslo,Diksmuide,Flandre
8600,Woumen,Diksmuide,Flandre
8600,Pervijze,Diksmuide,Flandre
8600,Kaaskerke,Diksmuide,Flandre
8600,Nieuwkapelle,Diksmuide,Flandre
8600,Oostkerke,Diksmuide,Flandre
8600,Lampernisse,Diksmuide,Flandre
8600,Stuivekenskerke,Diksmuide,Flandre
8600,Oudekapelle,Diksmuide,Flandre
8610,Kortemark,Kortemark,Flandre
8610,Handzame,Kortemark,Flandre
8610,Zarren,Kortemark,Flandre
8610,Werken,Kortemark,Flandre
8620,Nieuwpoort,Nieuwpoort,Flandre
8620,Ramskapelle,Nieuwpoort,Flandre
8630,Veurne,Veurne,Flandre
8630,Bulskamp,Veurne,Flandre
8630,Houtem,Veurne,Flandre
8630,Steenkerke,Veurne,Flandre
8630,Avekapelle,Veurne,Flandre
8630,Vinkem,Veurne,Flandre
8630,Wulveringem,Veurne,Flandre
8630,Eggewaartskapelle,Veurne,Flandre
8630,Booitshoeke,Veurne,Flandre
8630,De,Moeren,Veurne
8630,Zoutenaaie,Veurne,Flandre
8640,Vleteren,Vleteren,Flandre
8640,Oostvleteren,Vleteren,Flandre
8640,Westvleteren,Vleteren,Flandre
8640,Woesten,Vleteren,Flandre
8650,Houthulst,Houthulst,Flandre
8650,Klerken,Houthulst,Flandre
8650,Merkem,Houthulst,Flandre
8660,De,Panne,De
8660,Adinkerke,De,Panne
8670,Koksijde,Koksijde,Flandre
8670,Oostduinkerke,Koksijde,Flandre
8670,Wulpen,Koksijde,Flandre
8680,Koekelare,Koekelare,Flandre
8680,Bovekerke,Koekelare,Flandre
8680,Zande,Koekelare,Flandre
8690,Alveringem,Alveringem,Flandre
8690,Hoogstade,Alveringem,Flandre
8690,Oeren,Alveringem,Flandre
8691,Leisele,Alveringem,Flandre
8691,Beveren,Alveringem,Flandre
8691,Stavele,Alveringem,Flandre
8691,Izenberge,Alveringem,Flandre
8691,Gijverinkhove,Alveringem,Flandre
8700,Aarsele,Tielt,Flandre
8700,Kanegem,Tielt,Flandre
8700,Schuiferskapelle,Tielt,Flandre
8710,Wielsbeke,Wielsbeke,Flandre
8710,Ooigem,Wielsbeke,Flandre
8720,Dentergem,Dentergem,Flandre
8720,Wakken,Dentergem,Flandre
8720,Oeselgem,Dentergem,Flandre
8720,Markegem,Dentergem,Flandre
8730,Beernem,Beernem,Flandre
8730,Oedelem,Beernem,Flandre
8740,Pittem,Pittem,Flandre
8740,Egem,Pittem,Flandre
8750,Wingene,Wingene,Flandre
8750,Zwevezele,Wingene,Flandre
8755,Ruiselede,Ruiselede,Flandre
8760,Meulebeke,Meulebeke,Flandre
8770,Ingelmunster,Ingelmunster,Flandre
8780,Oostrozebeke,Oostrozebeke,Flandre
8790,Waregem,Waregem,Flandre
8791,Beveren,Waregem,Flandre
8792,Desselgem,Waregem,Flandre
8800,Roeselare,Roeselare,Flandre
8800,Rumbeke,Roeselare,Flandre
8800,Beveren,Roeselare,Flandre
8800,Oekene,Roeselare,Flandre
8810,Lichtervelde,Lichtervelde,Flandre
8820,Torhout,Torhout,Flandre
8830,Hooglede,Hooglede,Flandre
8830,Gits,Hooglede,Flandre
8840,Staden,Staden,Flandre
8840,Oostnieuwkerke,Staden,Flandre
8840,Westrozebeke,Staden,Flandre
8850,Ardooie,Ardooie,Flandre
8851,Koolskamp,Ardooie,Flandre
8860,Lendelede,Lendelede,Flandre
8870,Izegem,Izegem,Flandre
8870,Emelgem,Izegem,Flandre
8870,Kachtem,Izegem,Flandre
8880,Ledegem,Ledegem,Flandre
8890,Moorslede,Moorslede,Flandre
8890,Dadizele,Moorslede,Flandre
8900,Ieper,Ieper,Flandre
8900,Dikkebus,Ieper,Flandre
8900,Brielen,Ieper,Flandre
8902,Zillebeke,Ieper,Flandre
8902,Voormezele,Ieper,Flandre
8902,Hollebeke,Ieper,Flandre
8904,Boezinge,Ieper,Flandre
8904,Zuidschote,Ieper,Flandre
8906,Elverdinge,Ieper,Flandre
8908,Vlamertinge,Ieper,Flandre
8930,Menen,Menen,Flandre
8930,Lauwe,Menen,Flandre
8930,Rekkem,Menen,Flandre
8940,Wervik,Wervik,Flandre
8940,Geluwe,Wervik,Flandre
8950,Heuvelland,Heuvelland,Flandre
8950,Nieuwkerke,Heuvelland,Flandre
8951,Dranouter,Heuvelland,Flandre
8952,Wulvergem,Heuvelland,Flandre
8953,Wijtschate,Heuvelland,Flandre
8954,Westouter,Heuvelland,Flandre
8956,Kemmel,Heuvelland,Flandre
8957,Mesen,Mesen,Flandre
8958,Loker,Heuvelland,Flandre
8970,Poperinge,Poperinge,Flandre
8970,Reningelst,Poperinge,Flandre
8972,Proven,Poperinge,Flandre
8972,Krombeke,Poperinge,Flandre
8978,Watou,Poperinge,Flandre
8980,Zonnebeke,Zonnebeke,Flandre
8980,Beselare,Zonnebeke,Flandre
8980,Passendale,Zonnebeke,Flandre
8980,Geluveld,Zonnebeke,Flandre
8980,Zandvoorde,Zonnebeke,Flandre
9000,Gent,Gent,Flandre
9030,Mariakerke,Gent,Flandre
9031,Drongen,Gent,Flandre
9032,Wondelgem,Gent,Flandre
9041,Oostakker,Gent,Flandre
9042,Desteldonk,Gent,Flandre
9042,Mendonk,Gent,Flandre
9050,Gentbrugge,Gent,Flandre
9050,Ledeberg,Gent,Flandre
9051,Afsnee,Gent,Flandre
9052,Zwijnaarde,Gent,Flandre
9060,Zelzate,Zelzate,Flandre
9070,Destelbergen,Destelbergen,Flandre
9070,Heusden,Destelbergen,Flandre
9080,Lochristi,Lochristi,Flandre
9080,Beervelde,Lochristi,Flandre
9080,Zaffelare,Lochristi,Flandre
9080,Zeveneken,Lochristi,Flandre
9090,Melle,Melle,Flandre
9090,Gontrode,Melle,Flandre
9120,Beveren,Beveren,Flandre
9120,Melsele,Beveren,Flandre
9120,Haasdonk,Beveren,Flandre
9120,Vrasene,Beveren,Flandre
9120,Kallo,Beveren,Flandre
9130,Kieldrecht,Beveren,Flandre
9130,Verrebroek,Beveren,Flandre
9130,Doel,Beveren,Flandre
9140,Temse,Temse,Flandre
9140,Tielrode,Temse,Flandre
9140,Steendorp,Temse,Flandre
9140,Elversele,Temse,Flandre
9150,Kruibeke,Kruibeke,Flandre
9150,Bazel,Kruibeke,Flandre
9150,Rupelmonde,Kruibeke,Flandre
9160,Lokeren,Lokeren,Flandre
9160,Eksaarde,Lokeren,Flandre
9160,Daknam,Lokeren,Flandre
9170,De,Klinge,Sint
9185,Wachtebeke,Wachtebeke,Flandre
9190,Stekene,Stekene,Flandre
9190,Kemzeke,Stekene,Flandre
9200,Dendermonde,Dendermonde,Flandre
9200,Grembergen,Dendermonde,Flandre
9200,Baasrode,Dendermonde,Flandre
9200,Oudegem,Dendermonde,Flandre
9200,Appels,Dendermonde,Flandre
9200,Schoonaarde,Dendermonde,Flandre
9200,Mespelare,Dendermonde,Flandre
9220,Hamme,Hamme,Flandre
9220,Moerzeke,Hamme,Flandre
9230,Wetteren,Wetteren,Flandre
9230,Massemen,Wetteren,Flandre
9230,Westrem,Wetteren,Flandre
9240,Zele,Zele,Flandre
9250,Waasmunster,Waasmunster,Flandre
9255,Buggenhout,Buggenhout,Flandre
9255,Opdorp,Buggenhout,Flandre
9260,Wichelen,Wichelen,Flandre
9260,Schellebelle,Wichelen,Flandre
9260,Serskamp,Wichelen,Flandre
9270,Laarne,Laarne,Flandre
9270,Kalken,Laarne,Flandre
9280,Lebbeke,Lebbeke,Flandre
9280,Denderbelle,Lebbeke,Flandre
9280,Wieze,Lebbeke,Flandre
9290,Berlare,Berlare,Flandre
9290,Overmere,Berlare,Flandre
9290,Uitbergen,Berlare,Flandre
9300,Aalst,Aalst,Flandre
9308,Hofstade,Aalst,Flandre
9308,Gijzegem,Aalst,Flandre
9310,Moorsel,Aalst,Flandre
9310,Herdersem,Aalst,Flandre
9310,Meldert,Aalst,Flandre
9310,Baardegem,Aalst,Flandre
9320,Erembodegem,Aalst,Flandre
9320,Nieuwerkerken,Aalst,Flandre
9340,Lede,Lede,Flandre
9340,Oordegem,Lede,Flandre
9340,Impe,Lede,Flandre
9340,Smetlede,Lede,Flandre
9340,Wanzele,Lede,Flandre
9400,Ninove,Ninove,Flandre
9400,Denderwindeke,Ninove,Flandre
9400,Okegem,Ninove,Flandre
9400,Nederhasselt,Ninove,Flandre
9400,Voorde,Ninove,Flandre
9400,Lieferinge,Ninove,Flandre
9401,Pollare,Ninove,Flandre
9402,Meerbeke,Ninove,Flandre
9403,Neigem,Ninove,Flandre
9404,Aspelare,Ninove,Flandre
9406,Outer,Ninove,Flandre
9433,Mannekensvere,Middelkerke,Flandre
9450,Haaltert,Haaltert,Flandre
9450,Denderhoutem,Haaltert,Flandre
9450,Heldergem,Haaltert,Flandre
9451,Kerksken,Haaltert,Flandre
9470,Denderleeuw,Denderleeuw,Flandre
9472,Iddergem,Denderleeuw,Flandre
9473,Welle,Denderleeuw,Flandre
9500,Geraardsbergen,Geraardsbergen,Flandre
9500,Moerbeke,Moerbeke,Flandre
9500,Overboelare,Geraardsbergen,Flandre
9500,Goeferdinge,Geraardsbergen,Flandre
9500,Moerbeke,Geraardsbergen,Flandre
9500,Onkerzele,Geraardsbergen,Flandre
9500,Ophasselt,Geraardsbergen,Flandre
9500,Viane,Geraardsbergen,Flandre
9500,Nederboelare,Geraardsbergen,Flandre
9500,Zarlardinge,Geraardsbergen,Flandre
9506,Idegem,Geraardsbergen,Flandre
9506,Schendelbeke,Geraardsbergen,Flandre
9506,Zandbergen,Geraardsbergen,Flandre
9506,Grimminge,Geraardsbergen,Flandre
9506,Nieuwenhove,Geraardsbergen,Flandre
9506,Waarbeke,Geraardsbergen,Flandre
9550,Herzele,Herzele,Flandre
9550,Hillegem,Herzele,Flandre
9550,Woubrechtegem,Herzele,Flandre
9551,Ressegem,Herzele,Flandre
9552,Borsbeke,Herzele,Flandre
9570,Lierde,Lierde,Flandre
9570,Deftinge,Lierde,Flandre
9571,Hemelveerdegem,Lierde,Flandre
9600,Ronse,Ronse,Flandre
9620,Zottegem,Zottegem,Flandre
9620,Strijpen,Zottegem,Flandre
9620,Erwetegem,Zottegem,Flandre
9620,Elene,Zottegem,Flandre
9620,Godveerdegem,Zottegem,Flandre
9620,Grotenberge,Zottegem,Flandre
9620,Leeuwergem,Zottegem,Flandre
9620,Oombergen,Zottegem,Flandre
9630,Zwalm,Zwalm,Flandre
9630,Munkzwalm,Zwalm,Flandre
9630,Roborst,Zwalm,Flandre
9630,Hundelgem,Zwalm,Flandre
9630,Rozebeke,Zwalm,Flandre
9630,Beerlegem,Zwalm,Flandre
9630,Meilegem,Zwalm,Flandre
9630,Dikkele,Zwalm,Flandre
9630,Paulatem,Zwalm,Flandre
9660,Brakel,Brakel,Flandre
9660,Nederbrakel,Brakel,Flandre
9660,Everbeek,Brakel,Flandre
9660,Opbrakel,Brakel,Flandre
9660,Elst,Brakel,Flandre
9660,Zegelsem,Brakel,Flandre
9660,Michelbeke,Brakel,Flandre
9661,Parike,Brakel,Flandre
9667,Horebeke,Horebeke,Flandre
9680,Maarkedal,Maarkedal,Flandre
9680,Etikhove,Maarkedal,Flandre
9681,Nukerke,Maarkedal,Flandre
9688,Schorisse,Maarkedal,Flandre
9690,Kluisbergen,Kluisbergen,Flandre
9690,Ruien,Kluisbergen,Flandre
9690,Berchem,Kluisbergen,Flandre
9690,Zulzeke,Kluisbergen,Flandre
9690,Kwaremont,Kluisbergen,Flandre
9700,Oudenaarde,Oudenaarde,Flandre
9700,Eine,Oudenaarde,Flandre
9700,Bevere,Oudenaarde,Flandre
9700,Ename,Oudenaarde,Flandre
9700,Edelare,Oudenaarde,Flandre
9700,Leupegem,Oudenaarde,Flandre
9700,Mater,Oudenaarde,Flandre
9700,Nederename,Oudenaarde,Flandre
9700,Heurne,Oudenaarde,Flandre
9700,Volkegem,Oudenaarde,Flandre
9700,Welden,Oudenaarde,Flandre
9700,Melden,Oudenaarde,Flandre
9700,Mullem,Oudenaarde,Flandre
9750,Kruisem,Kruisem,Flandre
9750,Zingem,Kruisem,Flandre
9750,Huise,Kruisem,Flandre
9750,Ouwegem,Kruisem,Flandre
9770,Kruishoutem,Kruisem,Flandre
9771,Nokere,Kruisem,Flandre
9800,Deinze,Deinze,Flandre
9800,Astene,Deinze,Flandre
9800,Vinkt,Deinze,Flandre
9800,Wontergem,Deinze,Flandre
9800,Grammene,Deinze,Flandre
9800,Zeveren,Deinze,Flandre
9800,Meigem,Deinze,Flandre
9800,Gottem,Deinze,Flandre
9810,Nazareth,Nazareth,Flandre
9810,Eke,Nazareth,Flandre
9820,Merelbeke,Merelbeke,Flandre
9820,Bottelare,Merelbeke,Flandre
9820,Melsen,Merelbeke,Flandre
9820,Schelderode,Merelbeke,Flandre
9820,Lemberge,Merelbeke,Flandre
9820,Munte,Merelbeke,Flandre
9840,De,Pinte,De
9840,Zevergem,De,Pinte
9850,Nevele,Deinze,Flandre
9850,Landegem,Deinze,Flandre
9850,Hansbeke,Deinze,Flandre
9850,Merendree,Deinze,Flandre
9850,Vosselare,Deinze,Flandre
9850,Poesele,Deinze,Flandre
9860,Oosterzele,Oosterzele,Flandre
9860,Balegem,Oosterzele,Flandre
9860,Scheldewindeke,Oosterzele,Flandre
9860,Gijzenzele,Oosterzele,Flandre
9860,Moortsele,Oosterzele,Flandre
9860,Landskouter,Oosterzele,Flandre
9870,Zulte,Zulte,Flandre
9870,Olsene,Zulte,Flandre
9880,Aalter,Aalter,Flandre
9880,Lotenhulle,Aalter,Flandre
9880,Poeke,Aalter,Flandre
9881,Bellem,Aalter,Flandre
9890,Gavere,Gavere,Flandre
9890,Asper,Gavere,Flandre
9890,Dikkelvenne,Gavere,Flandre
9890,Semmerzake,Gavere,Flandre
9890,Vurste,Gavere,Flandre
9890,Baaigem,Gavere,Flandre
9900,Eeklo,Eeklo,Flandre
9910,Knesselare,Aalter,Flandre
9910,Ursel,Aalter,Flandre
9920,Lievegem,Lievegem,Flandre
9920,Lovendegem,Lievegem,Flandre
9921,Vinderhoute,Lievegem,Flandre
9930,Zomergem,Lievegem,Flandre
9931,Oostwinkel,Lievegem,Flandre
9932,Ronsele,Lievegem,Flandre
9940,Evergem,Evergem,Flandre
9940,Ertvelde,Evergem,Flandre
9940,Sleidinge,Evergem,Flandre
9940,Kluizen,Evergem,Flandre
9950,Waarschoot,Lievegem,Flandre
9960,Assenede,Assenede,Flandre
9961,Boekhoute,Assenede,Flandre
9968,Bassevelde,Assenede,Flandre
9968,Oosteeklo,Assenede,Flandre
9970,Kaprijke,Kaprijke,Flandre
9971,Lembeke,Kaprijke,Flandre
9990,Maldegem,Maldegem,Flandre
9991,Adegem,Maldegem,Flandre
9992,Middelburg,Maldegem,Flandre
